STARLINK-11673 [DTC]    
1 64318U 25124B   26124.50002315 -.00210849  00000+0 -16742-2 0  9994
2 64318  43.0009  52.8047 0001842 264.6989  35.1100 15.70944121  6027
STARLINK-11671 [DTC]    
1 64319U 25124C   26124.50004920  .00219552  00000+0  16686-2 0  9994
2 64319  43.0013  52.6532 0000490 259.3856 100.6956 15.70855088 51617
STARLINK-11594 [DTC]    
1 64320U 25124D   26124.21929193  .00137185  00000+0  10544-2 0  9990
2 64320  42.9999  54.8695 0001513 270.7620  89.3075 15.70855740 51561
STARLINK-11596 [DTC]    
1 64321U 25124E   26124.14508491  .00183011  00000+0  13929-2 0  9996
2 64321  43.0005  55.1654 0003315 249.8977 110.1534 15.70933889 51558
STARLINK-11747 [DTC]    
1 64322U 25124F   26124.51597498  .00273862  00000+0  20646-2 0  9991
2 64322  43.0005  52.7808 0000848  26.3177 333.7734 15.70881300 51613
STARLINK-11728 [DTC]    
1 64323U 25124G   26124.16619549  .00238018  00000+0  18023-2 0  9995
2 64323  43.0027  54.4403 0002147 280.5168  79.5457 15.70886272 51560
STARLINK-11696 [DTC]    
1 64324U 25124H   26124.49474233  .00189512  00000+0  14449-2 0  9993
2 64324  43.0001  52.6079 0001052  26.1481 333.9439 15.70874742 51610
STARLINK-11698 [DTC]    
1 64325U 25124J   26124.50096633  .00291913  00000+0  21929-2 0  9990
2 64325  42.9993  52.6601 0001578  44.4920 315.6074 15.70910928 51613
STARLINK-11678 [DTC]    
1 64326U 25124K   26124.20337477  .00168880  00000+0  12901-2 0  9998
2 64326  43.0021  54.7396 0001920 268.1009  91.9639 15.70893296 51569
STARLINK-11674 [DTC]    
1 64327U 25124L   26124.48941630  .00230214  00000+0  17406-2 0  9997
2 64327  42.9999  52.5641 0004663 285.3639  74.6713 15.70938724 51611
STARLINK-11707 [DTC]    
1 64328U 25124M   26124.50536461  .00211555  00000+0  16080-2 0  9997
2 64328  43.0005  52.6929 0001703  51.1177 308.9843 15.70877943 51612
STARLINK-11734 [DTC]    
1 64329U 25124N   26124.16088525  .00201413  00000+0  15341-2 0  9994
2 64329  43.0021  54.3944 0002245 266.6435  93.4176 15.70859228 51564
STARLINK-34252          
1 64330U 25124P   26124.43321344  .00011578  00000+0  42946-3 0  9998
2 64330  43.0013 167.0804 0001514 269.3829  90.6849 15.27590829 50307
STARLINK-34050          
1 64331U 25124Q   26124.42293144  .00021065  00000+0  77267-3 0  9990
2 64331  42.9991 166.9976 0001626 276.2915  83.7752 15.27585645 51369
STARLINK-33782          
1 64332U 25124R   26124.41136611  .00007694  00000+0  28862-3 0  9994
2 64332  42.9986 166.9032 0001224 289.7478  70.3241 15.27603312 50304
STARLINK-34207          
1 64333U 25124S   26124.42935674  .00017069  00000+0  62823-3 0  9994
2 64333  43.0013 167.0500 0001335 273.4124  86.6575 15.27586162 50304
STARLINK-34260          
1 64334U 25124T   26123.84858670  .00022849  00000+0  83744-3 0  9997
2 64334  43.0034 170.4309 0002729 273.4371  86.6169 15.27571149 50213
STARLINK-33855          
1 64335U 25124U   26124.40751241  .00015232  00000+0  56173-3 0  9991
2 64335  42.9964 166.8696 0000849 275.8634  84.2121 15.27589798 50302
STARLINK-34223          
1 64336U 25124V   26124.39642944  .00017864  00000+0  65685-3 0  9990
2 64336  42.9997 163.3276 0001919 275.2564  84.8068 15.27592198 50348
STARLINK-34216          
1 64337U 25124W   26124.39337860  .00018512  00000+0  68053-3 0  9992
2 64337  42.9959 166.7653 0001216 263.2142  96.8571 15.27579922 50300
STARLINK-34218          
1 64338U 25124X   26124.40799752  .00017237  00000+0  63442-3 0  9997
2 64338  42.9975 163.4216 0001671 276.8996  83.1665 15.27581348 50342
STARLINK-34017          
1 64339U 25124Y   26124.41907391  .00011874  00000+0  44008-3 0  9997
2 64339  42.9991 166.9605 0000839 285.0986  74.9773 15.27596442 50302
QPS-SAR-11 (YAMATSUMI-I)
1 64340U 25125A   26124.21887626  .00004652  00000+0  37002-3 0  9998
2 64340  42.0079  74.1277 0010468 210.7318 149.2896 15.01227214 49018
STARLINK-33977          
1 64344U 25126A   26124.43482069  .00002784  00000+0  24096-3 0  9992
2 64344  70.0020 253.8374 0003273 268.4362  91.6422 14.98334670 50240
STARLINK-34426          
1 64345U 25126B   26124.49723941  .00003408  00000+0  29325-3 0  9990
2 64345  70.0014 253.6479 0003179 268.2576  91.8218 14.98336309 49040
STARLINK-34437          
1 64346U 25126C   26124.45970288  .00007051  00000+0  59805-3 0  9999
2 64346  70.0022 253.9208 0002968 274.5171  85.5649 14.98337311 49030
STARLINK-34407          
1 64347U 25126D   26124.46403825  .00006480  00000+0  55019-3 0  9997
2 64347  70.0024 253.9305 0002907 275.5580  84.5247 14.98341257 49036
STARLINK-34274          
1 64348U 25126E   26124.47639443  .00003228  00000+0  27813-3 0  9994
2 64348  70.0007 253.9817 0003185 266.4957  93.5837 14.98339322 49037
STARLINK-34301          
1 64349U 25126F   26124.43465598  .00003483  00000+0  29950-3 0  9996
2 64349  70.0016 253.8319 0003159 268.5054  91.5743 14.98334914 49032
STARLINK-34425          
1 64350U 25126G   26124.45554244  .00006208  00000+0  52770-3 0  9991
2 64350  70.0021 253.9026 0003111 272.3059  87.7744 14.98324341 49033
STARLINK-34389          
1 64351U 25126H   26124.44317024  .00006314  00000+0  53633-3 0  9991
2 64351  70.0026 253.8564 0002779 265.6834  94.4008 14.98340353 49039
STARLINK-34385          
1 64352U 25126J   26124.46804815  .00003996  00000+0  34241-3 0  9990
2 64352  70.0015 253.9500 0003123 272.2481  87.8321 14.98338616 49038
STARLINK-34431          
1 64353U 25126K   26124.49740650  .00003723  00000+0  31958-3 0  9990
2 64353  70.0014 253.6522 0003265 268.3818  91.6968 14.98335695 49041
STARLINK-34473          
1 64354U 25126L   26124.44300389  .00003163  00000+0  27274-3 0  9991
2 64354  70.0028 253.8622 0003079 268.2677  91.8130 14.98335010 49038
STARLINK-34270          
1 64355U 25126M   26124.44717400  .00011726  00000+0  98832-3 0  9990
2 64355  70.0049 253.8743 0002548 259.0392 101.0480 14.98351563 50246
STARLINK-34397          
1 64356U 25126N   26124.47221995  .00001476  00000+0  13148-3 0  9991
2 64356  70.0013 253.9613 0003148 271.6423  88.4375 14.98336451 49032
STARLINK-34454          
1 64357U 25126P   26124.47656100  .00002782  00000+0  24082-3 0  9992
2 64357  70.0013 253.9764 0002552 280.7443  79.3428 14.98335785 49038
STARLINK-34436          
1 64358U 25126Q   26124.35552679  .00013050  00000+0  10999-2 0  9997
2 64358  70.0011 253.9512 0002951 285.8804  74.2029 14.98313933 49029
STARLINK-34291          
1 64359U 25126R   26124.43899477  .00002414  00000+0  20997-3 0  9999
2 64359  70.0018 253.8402 0003034 269.0365  91.0446 14.98334956 49032
STARLINK-34458          
1 64360U 25126S   26124.44734191  .00002343  00000+0  20407-3 0  9990
2 64360  70.0020 253.8709 0003197 270.3366  89.7427 14.98335191 49038
STARLINK-34243          
1 64361U 25126T   26124.45135214  .00004674  00000+0  39920-3 0  9992
2 64361  70.0026 253.8872 0003012 272.0077  88.0737 14.98338327 49030
STARLINK-34335          
1 64362U 25126U   26124.50002315 -.00039381  00000+0 -33087-2 0  9996
2 64362  70.0012 253.6168 0003343 267.5992 129.9719 14.98358486  5815
STARLINK-34408          
1 64363U 25126V   26124.48471678  .00005723  00000+0  48696-3 0  9990
2 64363  70.0021 253.6024 0002739 271.8148  88.2697 14.98339909 49040
STARLINK-34476          
1 64364U 25126W   26124.43882965  .00004528  00000+0  38701-3 0  9999
2 64364  70.0024 253.8436 0002933 266.7505  93.3319 14.98334651 49035
STARLINK-34479          
1 64365U 25126X   26124.48056966  .00002192  00000+0  19143-3 0  9993
2 64365  70.0014 253.9886 0003191 268.3817  91.6977 14.98334213 49031
STARLINK-34484          
1 64366U 25126Y   26124.48889391  .00003943  00000+0  33802-3 0  9993
2 64366  70.0024 253.6147 0002827 269.1976  90.8859 14.98333209 50250
STARLINK-34483          
1 64367U 25126Z   26124.50002315 -.00038133  00000+0 -32037-2 0  9999
2 64367  70.0012 253.6120 0003446 268.1571 128.5396 14.98350697  5768
STARLINK-34457          
1 64368U 25126AA  26124.46387270  .00005186  00000+0  44197-3 0  9992
2 64368  70.0028 253.9299 0003072 273.5433  86.5374 14.98338909 49037
STARLINK-34444          
1 64369U 25126AB  26124.46823078  .00007620  00000+0  64555-3 0  9999
2 64369  70.0018 253.9437 0002992 271.8660  88.2156 14.98341686 49037
STARLINK-11732 [DTC]    
1 64370U 25127A   26124.33743933  .00196963  00000+0  14997-2 0  9992
2 64370  43.0002 109.1715 0001453 261.4694  98.6009 15.70883184 52251
STARLINK-11731 [DTC]    
1 64371U 25127B   26124.41695193  .00193056  00000+0  14701-2 0  9999
2 64371  42.9988 108.9159 0000819 221.0110 139.0696 15.70891693 52269
STARLINK-11746 [DTC]    
1 64372U 25127C   26124.32151019  .00190103  00000+0  14500-2 0  9991
2 64372  43.0018 109.0432 0001901 282.6510  77.4145 15.70862539 52252
STARLINK-11748 [DTC]    
1 64373U 25127D   26124.30129904  .00165381  00000+0  12628-2 0  9997
2 64373  43.0026 109.7722 0003094 254.9748 105.0777 15.70914297 52248
STARLINK-11739 [DTC]    
1 64374U 25127E   26124.43275039  .00198441  00000+0  15120-2 0  9996
2 64374  43.0003 108.1472 0001278 253.9337 106.1389 15.70860682 52276
STARLINK-11738 [DTC]    
1 64375U 25127F   26124.36398495  .00152790  00000+0  11718-2 0  9997
2 64375  43.0007 109.3844 0001205 266.4619  93.6110 15.70853008 52253
STARLINK-11745 [DTC]    
1 64376U 25127G   26123.25121426  .00197029  00000+0  14963-2 0  9992
2 64376  43.0004 115.6424 0002329 254.3999 105.6612 15.70943609 52089
STARLINK-11742 [DTC]    
1 64377U 25127H   26124.34805735  .00130067  00000+0  10018-2 0  9992
2 64377  43.0003 109.2543 0001011 269.9188  90.1564 15.70829698 52253
STARLINK-11711 [DTC]    
1 64378U 25127J   26124.31619992  .00188861  00000+0  14406-2 0  9998
2 64378  43.0028 108.9973 0001955 270.3047  89.7597 15.70865004 52364
STARLINK-11743 [DTC]    
1 64379U 25127K   26124.29509091  .00166772  00000+0  12766-2 0  9998
2 64379  43.0023 109.7206 0001924 252.8840 107.1817 15.70852218 52240
